BEIDOU-2 IGSO-1 (C06)   
1 36828U 10036A   26018.81809434 -.00000108  00000+0  00000+0 0  9999
2 36828  54.2928 164.3128 0052318 216.4966 139.4186  1.00265661 56591
BEIDOU-2 G4 (C04)       
1 37210U 10057A   26018.82814773 -.00000100  00000+0  00000+0 0  9993
2 37210   3.2751  69.7959 0010019 201.3106 305.2611  1.00270925 55792
BEIDOU-2 IGSO-2 (C07)   
1 37256U 10068A   26018.56371687 -.00000158  00000+0  00000+0 0  9991
2 37256  47.8151 273.6916 0047530 215.2901 300.3111  1.00274341 55296
BEIDOU-2 IGSO-3 (C08)   
1 37384U 11013A   26013.36403966 -.00000159  00000+0  00000+0 0  9994
2 37384  62.1874  41.6115 0034409 189.7559 118.9870  1.00263242 54101
BEIDOU-2 IGSO-4 (C09)   
1 37763U 11038A   26018.90615102 -.00000010  00000+0  00000+0 0  9990
2 37763  54.5898 167.0156 0151392 230.3120 142.2273  1.00274624 53156
BEIDOU-2 IGSO-5 (C10)   
1 37948U 11073A   26018.67232009 -.00000104  00000+0  00000+0 0  9993
2 37948  47.9494 273.4010 0108846 221.8903 319.4731  1.00283157 51639
BEIDOU-2 G5 (C05)       
1 38091U 12008A   26019.16465891  .00000070  00000+0  00000+0 0  9995
2 38091   3.2009  70.5640 0013877 240.0735 285.9401  1.00269107 50871
BEIDOU-2 M3 (C11)       
1 38250U 12018A   26018.91437064 -.00000056  00000+0  00000+0 0  9991
2 38250  55.8869 309.9077 0023211 277.6696  82.0941  1.86230206 93169
BEIDOU-2 M4 (C12)       
1 38251U 12018B   26016.16166125 -.00000074  00000+0  00000+0 0  9994
2 38251  55.7907 309.2265 0014519 282.8392  77.0154  1.86229864 93119
BEIDOU-2 M6 (C14)       
1 38775U 12050B   26018.55712669 -.00000016  00000+0  00000+0 0  9992
2 38775  56.4102  67.8448 0012423 340.7901  19.2422  1.86230941 90523
BEIDOU-2 G6 (C02)       
1 38953U 12059A   26019.09836815 -.00000163  00000+0  00000+0 0  9992
2 38953   4.0426  75.1378 0009347 296.0298 226.7499  1.00270884 48412
BEIDOU-3S IGSO-1S (C31) 
1 40549U 15019A   26018.74382054 -.00000161  00000+0  00000+0 0  9995
2 40549  49.4787 297.2682 0035711 192.6767 351.8202  1.00284896 39577
BEIDOU-3S M2S (C58)     
1 40748U 15037A   26019.05121815 -.00000052  00000+0  00000+0 0  9996
2 40748  55.0041 307.1821 0010821 275.3563  84.5529  1.86232214 71342
BEIDOU-3S M1S (C57)     
1 40749U 15037B   26018.73982736 -.00000054  00000+0  00000+0 0  9990
2 40749  55.0007 307.1822 0003989  10.5872 349.4522  1.86254084 71340
BEIDOU-3S IGSO-2S (C56) 
1 40938U 15053A   26016.74545162 -.00000068  00000+0  00000+0 0  9990
2 40938  49.4536 260.5880 0060566 187.9938  30.9211  1.00262248 37836
BEIDOU-2 IGSO-6 (C13)   
1 41434U 16021A   26017.82934847 -.00000116  00000+0  00000+0 0  9994
2 41434  60.0168  39.5341 0060898 231.7195 239.2752  1.00287087 35970
BEIDOU-2 G7 (C03)       
1 41586U 16037A   26019.31753983 -.00000339  00000+0  00000+0 0  9992
2 41586   1.8473  68.1653 0006019 358.2939 277.0198  1.00266246  5391
BEIDOU-3 M1 (C19)       
1 43001U 17069A   26018.32258669 -.00000017  00000+0  00000+0 0  9996
2 43001  56.5581  68.0242 0010877 303.5148  56.4598  1.86231317 55817
BEIDOU-3 M2 (C20)       
1 43002U 17069B   26018.79796081 -.00000014  00000+0  00000+0 0  9990
2 43002  56.5578  68.0442 0007864 325.6874  34.3416  1.86231084 55814
BEIDOU-3 M7 (C27)       
1 43107U 18003A   26019.07743277 -.00000053  00000+0  00000+0 0  9999
2 43107  54.4619 307.5158 0003588  65.2071 294.8623  1.86232637 54573
BEIDOU-3 M8 (C28)       
1 43108U 18003B   26019.02263560 -.00000053  00000+0  00000+0 0  9997
2 43108  54.4549 307.5004 0004110 285.6155  74.3711  1.86231158 54586
BEIDOU-3 M4 (C22)       
1 43207U 18018A   26017.85388465 -.00000021  00000+0  00000+0 0  9999
2 43207  56.5165  68.1088 0005021 352.6396   7.4301  1.86231198 53944
BEIDOU-3 M3 (C21)       
1 43208U 18018B   26018.99427484 -.00000013  00000+0  00000+0 0  9992
2 43208  56.5170  68.0752 0008296 313.6946  46.3168  1.86231383 53964
BEIDOU-3 M9 (C29)       
1 43245U 18029A   26018.67390106 -.00000051  00000+0  00000+0 0  9992
2 43245  54.3306 305.1797 0001197 316.2935  43.7315  1.86228355 53113
BEIDOU-3 M10 (C30)      
1 43246U 18029B   26018.60898622 -.00000052  00000+0  00000+0 0  9993
2 43246  54.3280 305.2084 0004737  10.3711 349.6727  1.86229242 53090
BEIDOU-2 IGSO-7 (C16)   
1 43539U 18057A   26005.15661572 -.00000100  00000+0  00000+0 0  9991
2 43539  55.1801 164.4661 0093553 235.1954 230.6715  1.00249884 27490
BEIDOU-3 M5 (C23)       
1 43581U 18062A   26017.75943038  .00000074  00000+0  00000+0 0  9992
2 43581  54.0907 187.4176 0001761 356.8943   3.0877  1.86228753 50838
BEIDOU-3 M6 (C24)       
1 43582U 18062B   26017.62232588  .00000074  00000+0  00000+0 0  9990
2 43582  54.0906 187.4111 0007688  49.3702 310.6806  1.86229696 50834
BEIDOU-3 M12 (C26)      
1 43602U 18067A   26018.09748007  .00000072  00000+0  00000+0 0  9996
2 43602  54.1845 186.1289 0009184  42.3098 317.7399  1.86227888 50326
BEIDOU-3 M11 (C25)      
1 43603U 18067B   26018.23208957  .00000071  00000+0  00000+0 0  9997
2 43603  54.1821 186.0884 0005554  38.3727 321.6449  1.86227352 50351
BEIDOU-3 M13 (C32)      
1 43622U 18072A   26019.26235597 -.00000012  00000+0  00000+0 0  9994
2 43622  56.4916  67.5770 0007543 299.6984  60.3070  1.86231189 49882
BEIDOU-3 M14 (C33)      
1 43623U 18072B   26018.05391042 -.00000019  00000+0  00000+0 0  9996
2 43623  56.4923  67.6112 0004677 323.7284  36.3176  1.86231121 49852
BEIDOU-3 M16 (C35)      
1 43647U 18078A   26018.74820869 -.00000051  00000+0  00000+0 0  9994
2 43647  54.2264 305.2269 0007934  23.9175 336.1539  1.86232370 49371
BEIDOU-3 M15 (C34)      
1 43648U 18078B   26018.87745934 -.00000050  00000+0  00000+0 0  9997
2 43648  54.2224 305.2227 0004633  25.7990 334.2593  1.86232389 49391
BEIDOU-3 G1 (C59)       
1 43683U 18085A   26019.32343319 -.00000266  00000+0  00000+0 0  9995
2 43683   2.7005 101.7960 0001382  33.1528 240.2241  1.00268281 26562
BEIDOU-3 M17 (C36)      
1 43706U 18093A   26016.08562160  .00000082  00000+0  00000+0 0  9992
2 43706  54.1744 187.4553 0005987 305.5119 236.0891  1.86228483 48703
BEIDOU-3 M18 (C37)      
1 43707U 18093B   26018.89826569  .00000073  00000+0  00000+0 0  9990
2 43707  54.1752 187.3520 0006003 353.5953   6.3741  1.86226593 48752
BEIDOU-2 G8 (C01)       
1 44231U 19027A   26019.25297277 -.00000233  00000+0  00000+0 0  9999
2 44231   1.7553  74.7907 0008754 262.4905  16.9152  1.00275348 24586
BEIDOU-3 IGSO-2 (C39)   
1 44337U 19035A   26014.80226035 -.00000098  00000+0  00000+0 0  9994
2 44337  55.2327 160.2108 0037807 203.4776 157.9721  1.00260960 24135
BEIDOU-3 M24 (C46)      
1 44542U 19061A   26018.43186869  .00000074  00000+0  00000+0 0  9997
2 44542  54.4014 187.7774 0009464  26.8086 333.2205  1.86229282 43008
BEIDOU-3 M23 (C45)      
1 44543U 19061B   26018.67377242  .00000074  00000+0  00000+0 0  9991
2 44543  54.4004 187.7376 0005878  26.4697  48.2746  1.86227595 43014
BEIDOU-3 M22 (C44)      
1 44793U 19078A   26018.80865197 -.00000051  00000+0  00000+0 0  9998
2 44793  54.0731 305.0851 0006696  28.0505 332.0206  1.86232230 41860
BEIDOU-3 M21 (C43)      
1 44794U 19078B   26018.94717237 -.00000050  00000+0  00000+0 0  9994
2 44794  54.0462 305.0445 0004828  19.5411 340.5133  1.86227954 41878
BEIDOU-3 M19 (C41)      
1 44864U 19090A   26019.19634083 -.00000013  00000+0  00000+0 0  9990
2 44864  56.4252  67.7187 0019473 286.9281  76.2692  1.86231552 41468
BEIDOU-3 M20 (C42)      
1 44865U 19090B   26018.57032692 -.00000016  00000+0  00000+0 0  9993
2 44865  56.4260  67.7739 0016660 298.5430  94.5566  1.86231568 41438
BEIDOU-3 G2 (C60)       
1 45344U 20017A   26019.16890560 -.00000127  00000+0  00000+0 0  9992
2 45344   2.5669  44.7033 0002165 264.2704 310.4321  1.00272022 21766
BEIDOU-3 G3 (C61)       
1 45807U 20040A   26019.31762649 -.00000341  00000+0  00000+0 0  9993
2 45807   2.0810  66.9023 0004460 311.0042 325.6559  1.00276989 20579
BEIDOU-3 G4 (C62)       
1 56564U 23066A   26019.25609279 -.00000097  00000+0  00000+0 0  9996
2 56564   0.7357 305.3933 0001777 211.7040 213.6955  1.00270284  9906
BEIDOU-3 M28 (C50)      
1 58654U 23207A   26019.02511404 -.00000016  00000+0  00000+0 0  9993
2 58654  55.6173  67.3381 0003860 286.0916  73.9451  1.86229777 14063
BEIDOU-3 M26 (C48)      
1 58655U 23207B   26018.28560263 -.00000020  00000+0  00000+0 0  9993
2 58655  55.6189  67.3495 0005012 271.7650  88.2549  1.86229659 14037
BEIDOU-3 M25 (C47)      
1 61186U 24168B   26018.24187965 -.00000057  00000+0  00000+0 0  9993
2 61186  54.6081 307.4553 0005136 307.4264 140.1422  1.86230225  8995
BEIDOU-3 M27 (C49)      
1 61187U 24168C   26019.10022340 -.00000053  00000+0  00000+0 0  9991
2 61187  54.6027 307.4091 0002764 355.6694  82.3378  1.86230347  6483
